{
  "type": "FeatureCollection",
  "features": [
    {
      "type": "Feature",
      "properties": {
        "norad_id": 34299,
        "name": "COSMOS 2251 DEB",
        "group": "cosmos-2251-debris",
        "lat": -38.88826743958782,
        "lon": -55.13388950481832,
        "alt_km": 311.05412885066926,
        "timestamp": "2025-12-19T18:58:41.979922+00:00",
        "meta_object_name": "COSMOS 2251 DEB",
        "meta_object_id": "1993-036MV",
        "meta_epoch": "2025-12-19T04:02:34.782432",
        "meta_mean_motion": 15.88400264,
        "meta_eccentricity": 0.00124917,
        "meta_inclination": 73.9697,
        "meta_ra_of_asc_node": 319.7284,
        "meta_arg_of_pericenter": 80.4693,
        "meta_mean_anomaly": 279.7951,
        "meta_ephemeris_type": 0,
        "meta_classification_type": "U",
        "meta_norad_cat_id": 34299,
        "meta_element_set_no": 999,
        "meta_rev_at_epoch": 89112,
        "meta_bstar": 0.0057530382,
        "meta_mean_motion_dot": 0.01573161,
        "meta_mean_motion_ddot": 0.0011756805,
        "tle_line1": "1 34299U 93036MV  25353.16845813  .01573161  11757-2  57530-2 0  9991",
        "tle_line2": "2 34299  73.9697 319.7284 0012491  80.4693 279.7951 15.88400264891120"
      },
      "geometry": {
        "type": "Point",
        "coordinates": [
          -55.13388950481832,
          -38.88826743958782
        ]
      }
    },
    {
      "type": "Feature",
      "properties": {
        "norad_id": 34301,
        "name": "COSMOS 2251 DEB",
        "group": "cosmos-2251-debris",
        "lat": 73.68330012822486,
        "lon": -105.8113523393982,
        "alt_km": 610.469750017176,
        "timestamp": "2025-12-19T18:58:41.979933+00:00",
        "meta_object_name": "COSMOS 2251 DEB",
        "meta_object_id": "1993-036MX",
        "meta_epoch": "2025-12-18T20:28:51.464352",
        "meta_mean_motion": 14.84832368,
        "meta_eccentricity": 0.00107245,
        "meta_inclination": 74.0044,
        "meta_ra_of_asc_node": 154.548,
        "meta_arg_of_pericenter": 216.5383,
        "meta_mean_anomaly": 268.0889,
        "meta_ephemeris_type": 0,
        "meta_classification_type": "U",
        "meta_norad_cat_id": 34301,
        "meta_element_set_no": 999,
        "meta_rev_at_epoch": 88491,
        "meta_bstar": 0.0023629074,
        "meta_mean_motion_dot": 0.00020121,
        "meta_mean_motion_ddot": 0,
        "tle_line1": "1 34301U 93036MX  25352.85337343  .00020121  00000+0  23629-2 0  9994",
        "tle_line2": "2 34301  74.0044 154.5480 0010724 216.5383 268.0889 14.84832368884919"
      },
      "geometry": {
        "type": "Point",
        "coordinates": [
          -105.8113523393982,
          73.68330012822486
        ]
      }
    },
    {
      "type": "Feature",
      "properties": {
        "norad_id": 34302,
        "name": "COSMOS 2251 DEB",
        "group": "cosmos-2251-debris",
        "lat": 63.43936966541581,
        "lon": -103.88090948270276,
        "alt_km": 801.684591148739,
        "timestamp": "2025-12-19T18:58:41.979943+00:00",
        "meta_object_name": "COSMOS 2251 DEB",
        "meta_object_id": "1993-036MY",
        "meta_epoch": "2025-12-19T00:41:07.253088",
        "meta_mean_motion": 14.39353541,
        "meta_eccentricity": 0.0079127,
        "meta_inclination": 74.1779,
        "meta_ra_of_asc_node": 112.0723,
        "meta_arg_of_pericenter": 325.5447,
        "meta_mean_anomaly": 157.6335,
        "meta_ephemeris_type": 0,
        "meta_classification_type": "U",
        "meta_norad_cat_id": 34302,
        "meta_element_set_no": 999,
        "meta_rev_at_epoch": 87811,
        "meta_bstar": 0.00045692035,
        "meta_mean_motion_dot": 1.447e-05,
        "meta_mean_motion_ddot": 0,
        "tle_line1": "1 34302U 93036MY  25353.02855617  .00001447  00000+0  45692-3 0  9999",
        "tle_line2": "2 34302  74.1779 112.0723 0079127 325.5447 157.6335 14.39353541878114"
      },
      "geometry": {
        "type": "Point",
        "coordinates": [
          -103.88090948270276,
          63.43936966541581
        ]
      }
    },
    {
      "type": "Feature",
      "properties": {
        "norad_id": 34303,
        "name": "COSMOS 2251 DEB",
        "group": "cosmos-2251-debris",
        "lat": -41.74105659043574,
        "lon": -100.15296195699318,
        "alt_km": 724.1711714203911,
        "timestamp": "2025-12-19T18:58:41.979954+00:00",
        "meta_object_name": "COSMOS 2251 DEB",
        "meta_object_id": "1993-036MZ",
        "meta_epoch": "2025-12-19T04:53:32.563104",
        "meta_mean_motion": 14.54534064,
        "meta_eccentricity": 0.0135329,
        "meta_inclination": 74.006,
        "meta_ra_of_asc_node": 275.7871,
        "meta_arg_of_pericenter": 52.5074,
        "meta_mean_anomaly": 73.2659,
        "meta_ephemeris_type": 0,
        "meta_classification_type": "U",
        "meta_norad_cat_id": 34303,
        "meta_element_set_no": 999,
        "meta_rev_at_epoch": 88056,
        "meta_bstar": 0.0010697275,
        "meta_mean_motion_dot": 5.128e-05,
        "meta_mean_motion_ddot": 0,
        "tle_line1": "1 34303U 93036MZ  25353.20384911  .00005128  00000+0  10697-2 0  9990",
        "tle_line2": "2 34303  74.0060 275.7871 0135329  52.5074  73.2659 14.54534064880560"
      },
      "geometry": {
        "type": "Point",
        "coordinates": [
          -100.15296195699318,
          -41.74105659043574
        ]
      }
    },
    {
      "type": "Feature",
      "properties": {
        "norad_id": 34304,
        "name": "COSMOS 2251 DEB",
        "group": "cosmos-2251-debris",
        "lat": 8.8964580597052,
        "lon": 112.16106769618334,
        "alt_km": 816.7245683680576,
        "timestamp": "2025-12-19T18:58:41.979963+00:00",
        "meta_object_name": "COSMOS 2251 DEB",
        "meta_object_id": "1993-036NA",
        "meta_epoch": "2025-12-18T18:35:44.645856",
        "meta_mean_motion": 14.37914931,
        "meta_eccentricity": 0.01289999,
        "meta_inclination": 74.0134,
        "meta_ra_of_asc_node": 111.4624,
        "meta_arg_of_pericenter": 248.028,
        "meta_mean_anomaly": 263.189,
        "meta_ephemeris_type": 0,
        "meta_classification_type": "U",
        "meta_norad_cat_id": 34304,
        "meta_element_set_no": 999,
        "meta_rev_at_epoch": 87383,
        "meta_bstar": 0.0011783683,
        "meta_mean_motion_dot": 3.891e-05,
        "meta_mean_motion_ddot": 0,
        "tle_line1": "1 34304U 93036NA  25352.77482229  .00003891  00000+0  11784-2 0  9996",
        "tle_line2": "2 34304  74.0134 111.4624 0128999 248.0280 263.1890 14.37914931873836"
      },
      "geometry": {
        "type": "Point",
        "coordinates": [
          112.16106769618334,
          8.8964580597052
        ]
      }
    },
    {
      "type": "Feature",
      "properties": {
        "norad_id": 34307,
        "name": "COSMOS 2251 DEB",
        "group": "cosmos-2251-debris",
        "lat": -69.81138141896817,
        "lon": 172.83776381746034,
        "alt_km": 1227.9206443630083,
        "timestamp": "2025-12-19T18:58:41.979974+00:00",
        "meta_object_name": "COSMOS 2251 DEB",
        "meta_object_id": "1993-036ND",
        "meta_epoch": "2025-12-19T05:40:21.172224",
        "meta_mean_motion": 13.54329892,
        "meta_eccentricity": 0.03918431,
        "meta_inclination": 74.0534,
        "meta_ra_of_asc_node": 302.69,
        "meta_arg_of_pericenter": 132.2151,
        "meta_mean_anomaly": 299.4871,
        "meta_ephemeris_type": 0,
        "meta_classification_type": "U",
        "meta_norad_cat_id": 34307,
        "meta_element_set_no": 999,
        "meta_rev_at_epoch": 82950,
        "meta_bstar": 0.00050628,
        "meta_mean_motion_dot": 5.44e-06,
        "meta_mean_motion_ddot": 0,
        "tle_line1": "1 34307U 93036ND  25353.23635616  .00000544  00000+0  50628-3 0  9994",
        "tle_line2": "2 34307  74.0534 302.6900 0391843 132.2151 299.4871 13.54329892829505"
      },
      "geometry": {
        "type": "Point",
        "coordinates": [
          172.83776381746034,
          -69.81138141896817
        ]
      }
    },
    {
      "type": "Feature",
      "properties": {
        "norad_id": 34313,
        "name": "COSMOS 2251 DEB",
        "group": "cosmos-2251-debris",
        "lat": -73.08596394891148,
        "lon": -140.3148527546405,
        "alt_km": 519.3423441890172,
        "timestamp": "2025-12-19T18:58:41.979984+00:00",
        "meta_object_name": "COSMOS 2251 DEB",
        "meta_object_id": "1993-036NK",
        "meta_epoch": "2025-12-19T05:08:07.172160",
        "meta_mean_motion": 15.20167674,
        "meta_eccentricity": 0.00117596,
        "meta_inclination": 73.9716,
        "meta_ra_of_asc_node": 291.8749,
        "meta_arg_of_pericenter": 71.0703,
        "meta_mean_anomaly": 289.1768,
        "meta_ephemeris_type": 0,
        "meta_classification_type": "U",
        "meta_norad_cat_id": 34313,
        "meta_element_set_no": 999,
        "meta_rev_at_epoch": 89163,
        "meta_bstar": 0.0029328282,
        "meta_mean_motion_dot": 0.0006414,
        "meta_mean_motion_ddot": 0,
        "tle_line1": "1 34313U 93036NK  25353.21397190  .00064140  00000+0  29328-2 0  9995",
        "tle_line2": "2 34313  73.9716 291.8749 0011759  71.0703 289.1768 15.20167674891637"
      },
      "geometry": {
        "type": "Point",
        "coordinates": [
          -140.3148527546405,
          -73.08596394891148
        ]
      }
    }
  ]
}